STARLINK-37018          
1 68103U 26044C   26093.25001157 -.01845535  00000+0 -35436-1 0  9999
2 68103  97.2853  54.4979 0001991 101.6218 110.8995 15.51403444  5303
STARLINK-37041          
1 68104U 26044D   26093.25001157 -.01856707  00000+0 -34598-1 0  9991
2 68104  97.2853  54.5051 0002000 107.5505 127.8772 15.52257103  5303
STARLINK-37021          
1 68105U 26044E   26093.25001157 -.01246119  00000+0 -24394-1 0  9995
2 68105  97.2853  54.4925 0001967  94.3379 110.2445 15.50136023  5304
STARLINK-37024          
1 68106U 26044F   26093.25001157 -.01805032  00000+0 -33360-1 0  9994
2 68106  97.2857  54.5153 0001732  98.9192 153.5423 15.52388225  5307
STARLINK-37005          
1 68107U 26044G   26093.25001157 -.01830619  00000+0 -34777-1 0  9997
2 68107  97.2854  54.5009 0002235 104.8024 116.7526 15.51668757  5300
STARLINK-37017          
1 68108U 26044H   26093.25001157 -.01855080  00000+0 -33561-1 0  9997
2 68108  97.2853  54.5184 0001816 114.4516 152.5943 15.53071501  5309
STARLINK-36833          
1 68109U 26044J   26093.25001157 -.01853203  00000+0 -32993-1 0  9991
2 68109  97.2853  54.5244 0001635 117.1904 166.0782 15.53511223  5353
STARLINK-36830          
1 68110U 26044K   26093.25001157 -.01853622  00000+0 -33157-1 0  9991
2 68110  97.2853  54.5221 0001766 112.3240 164.4979 15.53380752  5356
STARLINK-36791          
1 68111U 26044L   26093.25001157 -.01849201  00000+0 -32469-1 0  9995
2 68111  97.2851  54.5312 0001539 117.5529 180.5455 15.53883845  5305
STARLINK-36893          
1 68112U 26044M   26093.25001157 -.01849706  00000+0 -32184-1 0  9990
2 68112  97.2851  54.5349 0001599 117.0991 191.5648 15.54132116  5350
STARLINK-36937          
1 68113U 26044N   26093.25001157 -.01845683  00000+0 -31730-1 0  9997
2 68113  97.2852  54.5404 0001398 118.0029 202.3827 15.54454329  5302
STARLINK-36229          
1 68114U 26044P   26093.25001157 -.01850161  00000+0 -32034-1 0  9993
2 68114  97.2853  54.5368 0001501 106.9208 208.0995 15.54268308  5358
STARLINK-36392          
1 68115U 26044Q   26093.25001157 -.01880677  00000+0 -35746-1 0  9992
2 68115  97.2856  54.5209 0001764 109.2290 165.7488 15.51756785  5358
STARLINK-36805          
1 68116U 26044R   26093.25001157 -.01856451  00000+0 -33567-1 0  9995
2 68116  97.2852  54.5325 0001609 107.3793 195.9875 15.53091774  5356
STARLINK-36844          
1 68117U 26044S   26093.25001157 -.01856415  00000+0 -31123-1 0  9992
2 68117  97.2853  54.5514 0001382 105.7000 242.7902 15.55157341  5301
STARLINK-36789          
1 68118U 26044T   26093.25001157 -.01870682  00000+0 -30431-1 0  9996
2 68118  97.2856  54.5591 0001438 103.4305 260.9865 15.55997037  5309
