[{"OBJECT_NAME":"STARLINK-37018","OBJECT_ID":"2026-044C","EPOCH":"2026-04-03T06:00:00.999648","MEAN_MOTION":15.51403444,"ECCENTRICITY":0.00019914,"INCLINATION":97.2853,"RA_OF_ASC_NODE":54.4979,"ARG_OF_PERICENTER":101.6218,"MEAN_ANOMALY":110.8995,"EPHEMERIS_TYPE":0,"CLASSIFICATION_TYPE":"U","NORAD_CAT_ID":68103,"ELEMENT_SET_NO":999,"REV_AT_EPOCH":530,"BSTAR":-0.035436212,"MEAN_MOTION_DOT":-0.01845535,"MEAN_MOTION_DDOT":0},{"OBJECT_NAME":"STARLINK-37041","OBJECT_ID":"2026-044D","EPOCH":"2026-04-03T06:00:00.999648","MEAN_MOTION":15.52257103,"ECCENTRICITY":0.00020001,"INCLINATION":97.2853,"RA_OF_ASC_NODE":54.5051,"ARG_OF_PERICENTER":107.5505,"MEAN_ANOMALY":127.8772,"EPHEMERIS_TYPE":0,"CLASSIFICATION_TYPE":"U","NORAD_CAT_ID":68104,"ELEMENT_SET_NO":999,"REV_AT_EPOCH":530,"BSTAR":-0.034598268,"MEAN_MOTION_DOT":-0.01856707,"MEAN_MOTION_DDOT":0},{"OBJECT_NAME":"STARLINK-37021","OBJECT_ID":"2026-044E","EPOCH":"2026-04-03T06:00:00.999648","MEAN_MOTION":15.50136023,"ECCENTRICITY":0.00019671,"INCLINATION":97.2853,"RA_OF_ASC_NODE":54.4925,"ARG_OF_PERICENTER":94.3379,"MEAN_ANOMALY":110.2445,"EPHEMERIS_TYPE":0,"CLASSIFICATION_TYPE":"U","NORAD_CAT_ID":68105,"ELEMENT_SET_NO":999,"REV_AT_EPOCH":530,"BSTAR":-0.024393762,"MEAN_MOTION_DOT":-0.01246119,"MEAN_MOTION_DDOT":0},{"OBJECT_NAME":"STARLINK-37024","OBJECT_ID":"2026-044F","EPOCH":"2026-04-03T06:00:00.999648","MEAN_MOTION":15.52388225,"ECCENTRICITY":0.0001732,"INCLINATION":97.2857,"RA_OF_ASC_NODE":54.5153,"ARG_OF_PERICENTER":98.9192,"MEAN_ANOMALY":153.5423,"EPHEMERIS_TYPE":0,"CLASSIFICATION_TYPE":"U","NORAD_CAT_ID":68106,"ELEMENT_SET_NO":999,"REV_AT_EPOCH":530,"BSTAR":-0.033359514,"MEAN_MOTION_DOT":-0.01805032,"MEAN_MOTION_DDOT":0},{"OBJECT_NAME":"STARLINK-37005","OBJECT_ID":"2026-044G","EPOCH":"2026-04-03T06:00:00.999648","MEAN_MOTION":15.51668757,"ECCENTRICITY":0.00022359,"INCLINATION":97.2854,"RA_OF_ASC_NODE":54.5009,"ARG_OF_PERICENTER":104.8024,"MEAN_ANOMALY":116.7526,"EPHEMERIS_TYPE":0,"CLASSIFICATION_TYPE":"U","NORAD_CAT_ID":68107,"ELEMENT_SET_NO":999,"REV_AT_EPOCH":530,"BSTAR":-0.034776776,"MEAN_MOTION_DOT":-0.01830619,"MEAN_MOTION_DDOT":0},{"OBJECT_NAME":"STARLINK-37017","OBJECT_ID":"2026-044H","EPOCH":"2026-04-03T06:00:00.999648","MEAN_MOTION":15.53071501,"ECCENTRICITY":0.00018161,"INCLINATION":97.2853,"RA_OF_ASC_NODE":54.5184,"ARG_OF_PERICENTER":114.4516,"MEAN_ANOMALY":152.5943,"EPHEMERIS_TYPE":0,"CLASSIFICATION_TYPE":"U","NORAD_CAT_ID":68108,"ELEMENT_SET_NO":999,"REV_AT_EPOCH":530,"BSTAR":-0.033561218,"MEAN_MOTION_DOT":-0.0185508,"MEAN_MOTION_DDOT":0},{"OBJECT_NAME":"STARLINK-36833","OBJECT_ID":"2026-044J","EPOCH":"2026-04-03T06:00:00.999648","MEAN_MOTION":15.53511223,"ECCENTRICITY":0.00016359,"INCLINATION":97.2853,"RA_OF_ASC_NODE":54.5244,"ARG_OF_PERICENTER":117.1904,"MEAN_ANOMALY":166.0782,"EPHEMERIS_TYPE":0,"CLASSIFICATION_TYPE":"U","NORAD_CAT_ID":68109,"ELEMENT_SET_NO":999,"REV_AT_EPOCH":535,"BSTAR":-0.032992723,"MEAN_MOTION_DOT":-0.01853203,"MEAN_MOTION_DDOT":0},{"OBJECT_NAME":"STARLINK-36830","OBJECT_ID":"2026-044K","EPOCH":"2026-04-03T06:00:00.999648","MEAN_MOTION":15.53380752,"ECCENTRICITY":0.0001766,"INCLINATION":97.2853,"RA_OF_ASC_NODE":54.5221,"ARG_OF_PERICENTER":112.324,"MEAN_ANOMALY":164.4979,"EPHEMERIS_TYPE":0,"CLASSIFICATION_TYPE":"U","NORAD_CAT_ID":68110,"ELEMENT_SET_NO":999,"REV_AT_EPOCH":535,"BSTAR":-0.033156828,"MEAN_MOTION_DOT":-0.01853622,"MEAN_MOTION_DDOT":0},{"OBJECT_NAME":"STARLINK-36791","OBJECT_ID":"2026-044L","EPOCH":"2026-04-03T06:00:00.999648","MEAN_MOTION":15.53883845,"ECCENTRICITY":0.0001539,"INCLINATION":97.2851,"RA_OF_ASC_NODE":54.5312,"ARG_OF_PERICENTER":117.5529,"MEAN_ANOMALY":180.5455,"EPHEMERIS_TYPE":0,"CLASSIFICATION_TYPE":"U","NORAD_CAT_ID":68111,"ELEMENT_SET_NO":999,"REV_AT_EPOCH":530,"BSTAR":-0.032468661,"MEAN_MOTION_DOT":-0.01849201,"MEAN_MOTION_DDOT":0},{"OBJECT_NAME":"STARLINK-36893","OBJECT_ID":"2026-044M","EPOCH":"2026-04-03T06:00:00.999648","MEAN_MOTION":15.54132116,"ECCENTRICITY":0.00015991,"INCLINATION":97.2851,"RA_OF_ASC_NODE":54.5349,"ARG_OF_PERICENTER":117.0991,"MEAN_ANOMALY":191.5648,"EPHEMERIS_TYPE":0,"CLASSIFICATION_TYPE":"U","NORAD_CAT_ID":68112,"ELEMENT_SET_NO":999,"REV_AT_EPOCH":535,"BSTAR":-0.032184144,"MEAN_MOTION_DOT":-0.01849706,"MEAN_MOTION_DDOT":0},{"OBJECT_NAME":"STARLINK-36937","OBJECT_ID":"2026-044N","EPOCH":"2026-04-03T06:00:00.999648","MEAN_MOTION":15.54454329,"ECCENTRICITY":0.00013982,"INCLINATION":97.2852,"RA_OF_ASC_NODE":54.5404,"ARG_OF_PERICENTER":118.0029,"MEAN_ANOMALY":202.3827,"EPHEMERIS_TYPE":0,"CLASSIFICATION_TYPE":"U","NORAD_CAT_ID":68113,"ELEMENT_SET_NO":999,"REV_AT_EPOCH":530,"BSTAR":-0.031730317,"MEAN_MOTION_DOT":-0.01845683,"MEAN_MOTION_DDOT":0},{"OBJECT_NAME":"STARLINK-36229","OBJECT_ID":"2026-044P","EPOCH":"2026-04-03T06:00:00.999648","MEAN_MOTION":15.54268308,"ECCENTRICITY":0.00015011,"INCLINATION":97.2853,"RA_OF_ASC_NODE":54.5368,"ARG_OF_PERICENTER":106.9208,"MEAN_ANOMALY":208.0995,"EPHEMERIS_TYPE":0,"CLASSIFICATION_TYPE":"U","NORAD_CAT_ID":68114,"ELEMENT_SET_NO":999,"REV_AT_EPOCH":535,"BSTAR":-0.032033929,"MEAN_MOTION_DOT":-0.01850161,"MEAN_MOTION_DDOT":0},{"OBJECT_NAME":"STARLINK-36392","OBJECT_ID":"2026-044Q","EPOCH":"2026-04-03T06:00:00.999648","MEAN_MOTION":15.51756785,"ECCENTRICITY":0.00017643,"INCLINATION":97.2856,"RA_OF_ASC_NODE":54.5209,"ARG_OF_PERICENTER":109.229,"MEAN_ANOMALY":165.7488,"EPHEMERIS_TYPE":0,"CLASSIFICATION_TYPE":"U","NORAD_CAT_ID":68115,"ELEMENT_SET_NO":999,"REV_AT_EPOCH":535,"BSTAR":-0.035746313,"MEAN_MOTION_DOT":-0.01880677,"MEAN_MOTION_DDOT":0},{"OBJECT_NAME":"STARLINK-36805","OBJECT_ID":"2026-044R","EPOCH":"2026-04-03T06:00:00.999648","MEAN_MOTION":15.53091774,"ECCENTRICITY":0.00016097,"INCLINATION":97.2852,"RA_OF_ASC_NODE":54.5325,"ARG_OF_PERICENTER":107.3793,"MEAN_ANOMALY":195.9875,"EPHEMERIS_TYPE":0,"CLASSIFICATION_TYPE":"U","NORAD_CAT_ID":68116,"ELEMENT_SET_NO":999,"REV_AT_EPOCH":535,"BSTAR":-0.033567114,"MEAN_MOTION_DOT":-0.01856451,"MEAN_MOTION_DDOT":0},{"OBJECT_NAME":"STARLINK-36844","OBJECT_ID":"2026-044S","EPOCH":"2026-04-03T06:00:00.999648","MEAN_MOTION":15.55157341,"ECCENTRICITY":0.00013821,"INCLINATION":97.2853,"RA_OF_ASC_NODE":54.5514,"ARG_OF_PERICENTER":105.7,"MEAN_ANOMALY":242.7902,"EPHEMERIS_TYPE":0,"CLASSIFICATION_TYPE":"U","NORAD_CAT_ID":68117,"ELEMENT_SET_NO":999,"REV_AT_EPOCH":530,"BSTAR":-0.031122503,"MEAN_MOTION_DOT":-0.01856415,"MEAN_MOTION_DDOT":0},{"OBJECT_NAME":"STARLINK-36789","OBJECT_ID":"2026-044T","EPOCH":"2026-04-03T06:00:00.999648","MEAN_MOTION":15.55997037,"ECCENTRICITY":0.00014389,"INCLINATION":97.2856,"RA_OF_ASC_NODE":54.5591,"ARG_OF_PERICENTER":103.4305,"MEAN_ANOMALY":260.9865,"EPHEMERIS_TYPE":0,"CLASSIFICATION_TYPE":"U","NORAD_CAT_ID":68118,"ELEMENT_SET_NO":999,"REV_AT_EPOCH":530,"BSTAR":-0.030430545,"MEAN_MOTION_DOT":-0.01870682,"MEAN_MOTION_DDOT":0}]
